ARIANE 40 R/B           
1 21610U 91050F   17345.75627817 -.00000001  00000-0  13541-4 0  9998
2 21610  98.5828  43.1885 0004158 124.1799 343.9224 14.40822114385406
